FM-6                    
1 39360U 13058A   26199.58864397 -.00000024  00000+0  00000+0 0  9990
2 39360   0.0130  35.9612 0001496 147.9640 208.0270  1.00278676 46381
RADUGA-1M 3             
1 39375U 13062A   26199.83881977  .00000144  00000+0  00000+0 0  9994
2 39375   6.0372  71.9471 0002048 282.1190 279.5133  1.00271022 46424
SES-8                   
1 39460U 13071A   26199.87683566 -.00000276  00000+0  00000+0 0  9994
2 39460   0.0469 250.8052 0002763 223.3006 233.2215  1.00271583 44743
INMARSAT 5-F1           
1 39476U 13073A   26199.42092466  .00000020  00000+0  00000+0 0  9993
2 39476   0.0171  57.9760 0000260 270.3055 182.1060  1.00271558 45897
TKSAT-1 (TUPAC KATARI)  
1 39481U 13075A   26199.45114144 -.00000202  00000+0  00000+0 0  9995
2 39481   0.0072 283.7369 0002507 188.2074 259.5025  1.00270182 45916
EXPRESS-AM5             
1 39487U 13077A   26199.72132375 -.00000287  00000+0  00000+0 0  9992
2 39487   0.0411 234.0383 0000099 348.7143 113.4686  1.00269666 46678
GSAT-14                 
1 39498U 14001A   26199.70824954 -.00000083  00000+0  00000+0 0  9995
2 39498   0.0196  91.5571 0001992 115.9890  57.8865  1.00271532 45697
THAICOM 6               
1 39500U 14002A   26199.80528572 -.00000128  00000+0  00000+0 0  9998
2 39500   0.0562 107.7670 0004432  18.3898 178.8521  1.00272905 45771
TDRS 12                 
1 39504U 14004A   26199.89140556 -.00000277  00000+0  00000+0 0  9990
2 39504   4.0090  19.6056 0004303 201.8496 355.2785  1.00271709 44597
ABS-2                   
1 39508U 14006A   26199.77467757 -.00000092  00000+0  00000+0 0  9993
2 39508   0.0187  53.5418 0003455  48.8824 187.9386  1.00271922 45599
ATHENA-FIDUS            
1 39509U 14006B   26199.84083196  .00000148  00000+0  00000+0 0  9994
2 39509   0.0322 100.3718 0001462  25.1761 151.5731  1.00271817 45403
TURKSAT 4A              
1 39522U 14007A   26199.84415080  .00000140  00000+0  00000+0 0  9993
2 39522   0.0859 278.6983 0001200 334.5680  29.2639  1.00269016 45285
EXPRESS-AT1             
1 39612U 14010A   26199.80461273 -.00000020  00000+0  00000+0 0  9996
2 39612   0.3374  85.3430 0004479  56.4887 150.8087  1.00309862 45136
EXPRESS-AT2             
1 39613U 14010B   26199.85636337  .00000072  00000+0  00000+0 0  9993
2 39613   0.0164  58.8563 0000260  30.8002 211.2729  1.00272741 44816
AMAZONAS 4A             
1 39616U 14011A   26199.58308632 -.00000260  00000+0  00000+0 0  9991
2 39616   0.0594 182.1322 0004690 315.3797 294.7729  1.00272657 45029
ASTRA 5B                
1 39617U 14011B   26199.83586453  .00000130  00000+0  00000+0 0  9994
2 39617   0.0689 306.2731 0002026 179.1336 135.5839  1.00270161 44980
IRNSS-1B                
1 39635U 14017A   26199.70438066  .00000121  00000+0  00000+0 0  9992
2 39635  28.8702 239.8599 0022199 192.0035 173.4078  1.00276854 45117
LUCH-5V                 
1 39727U 14023A   26199.86261924 -.00000277  00000+0  00000+0 0  9998
2 39727   5.2094  69.4150 0002105  83.3325 189.1903  1.00272383 44675
KAZSAT-3                
1 39728U 14023B   26199.85857764  .00000054  00000+0  00000+0 0  9993
2 39728   0.0087   8.2513 0000072  87.6473 208.3444  1.00274486 42776
EUTELSAT 3B             
1 39773U 14030A   26199.79072490  .00000013  00000+0  00000+0 0  9994
2 39773   0.0617  10.4945 0004260 105.8002 108.0347  1.00272169 44386
ASIASAT 8 (AMOS-7)      
1 40107U 14046A   26199.87097433 -.00000339  00000+0  00000+0 0  9999
2 40107   0.0139  70.1254 0001585  32.7236 252.6718  1.00272516102466
ASIASAT 6               
1 40141U 14052A   26199.73516847 -.00000369  00000+0  00000+0 0  9997
2 40141   0.0194  81.2361 0000811  61.5362 178.3236  1.00272380 43392
OPTUS 10                
1 40146U 14054A   26199.55947676 -.00000154  00000+0  00000+0 0  9994
2 40146   0.0563 292.9150 0001915 180.5423 180.3230  1.00272146 43342
MEASAT-3B               
1 40147U 14054B   26199.83447544 -.00000248  00000+0  00000+0 0  9999
2 40147   0.0239   2.3721 0002745  76.9331 249.2520  1.00272471 43223
HIMAWARI-8              
1 40267U 14060A   26199.72149707 -.00000282  00000+0  00000+0 0  9995
2 40267   0.0109  49.6415 0001207 114.4796 172.7993  1.00270601 43071
IRNSS-1C                
1 40269U 14061A   26199.71006955 -.00000172  00000+0  00000+0 0  9992
2 40269   6.5950  88.3313 0021993   5.8558 180.9989  1.00271766 43000
INTELSAT 30 (IS-30)     
1 40271U 14062A   26199.37475181 -.00000159  00000+0  00000+0 0  9994
2 40271   0.0185  58.3463 0001487 331.0650 306.6267  1.00272186  7102
ARSAT 1                 
1 40272U 14062B   26199.75061721 -.00000266  00000+0  00000+0 0  9997
2 40272   0.0558 272.1352 0001928 196.4137  26.4086  1.00272728 42942
EUTELSAT 53A            
1 40277U 14064A   26199.85414904  .00000091  00000+0  00000+0 0  9995
2 40277   0.0135  40.3903 0001867 158.6633  98.1011  1.00275359 41887
GSAT-16                 
1 40332U 14078A   26199.85525815  .00000079  00000+0  00000+0 0  9992
2 40332   0.0194  55.6598 0007509  40.0390 203.9155  1.00270894 42421
DIRECTV 14              
1 40333U 14078B   26199.58308632 -.00000132  00000+0  00000+0 0  9990
2 40333   0.0124  49.6835 0000308 326.6774  30.6839  1.00270331 42353
YAMAL 401               
1 40345U 14082A   26199.84930076 -.00000234  00000+0  00000+0 0  9993
2 40345   0.0143 135.4479 0000475 300.6877 256.1901  1.00268980 42235
